TANAGER-1               
1 60507U 24149AR  26194.20464433  .00000202  00000+0  62927-5 0  9990
2 60507  97.2326 288.3495 0001097 157.8296 202.3000 15.43938830107057
